NORAD_CAT_ID,OBJECT_NAME,OBJECT_TYPE,EPOCH,MEAN_MOTION,ECCENTRICITY,INCLINATION,RA_OF_ASC_NODE,ARG_OF_PERICENTER,MEAN_ANOMALY,BSTAR,MEAN_MOTION_DOT,MEAN_MOTION_DDOT,TLE_LINE0,TLE_LINE1,TLE_LINE2,SEMIMAJOR_AXIS,PERIOD,APOGEE,PERIGEE,DECAYED
52616.0,STARLINK-4015,PAYLOAD,2023-05-10 17:52:37,15.08853213,7.73e-05,53.2157,230.6752,94.469,265.639,0.00030726,4.607e-05,0.0,0 STARLINK-4015,1 52616U 22052U   23130.74488362  .00004607  00000-0  30726-3 0  9990,2 52616  53.2157 230.6752 0000773  94.4690 265.6390 15.08853213 54904,6917.84,95.437,540.24,539.17,0.0
52616.0,STARLINK-4015,PAYLOAD,2023-05-11 11:21:52,15.08845527,6.56e-05,53.2159,227.4093,67.4438,292.6624,0.00019559,2.827e-05,0.0,0 STARLINK-4015,1 52616U 22052U   23131.47352872  .00002827  00000-0  19559-3 0  9990,2 52616  53.2159 227.4093 0000656  67.4438 292.6624 15.08845527 55380,6917.863,95.437,540.182,539.275,0.0
52616.0,STARLINK-4015,PAYLOAD,2023-05-11 12:57:15,15.08849453,7.16e-05,53.2159,227.1106,78.111,281.9962,0.00027817,4.143e-05,0.0,0 STARLINK-4015,1 52616U 22052U   23131.53976734  .00004143  00000-0  27817-3 0  9995,2 52616  53.2159 227.1106 0000716  78.1110 281.9962 15.08849453 55024,6917.851,95.437,540.212,539.221,0.0
52616.0,STARLINK-4015,PAYLOAD,2023-05-12 09:37:16,15.08844496,0.000149,53.2161,223.2383,153.0167,207.0902,0.00015257,2.141e-05,0.0,0 STARLINK-4015,1 52616U 22052U   23132.40088538  .00002141  00000-0  15257-3 0  9999,2 52616  53.2161 223.2383 0001490 153.0167 207.0902 15.08844496 55155,6917.867,95.437,540.762,538.701,0.0
52616.0,STARLINK-4015,PAYLOAD,2023-05-13 12:38:50,15.08829687,8.81e-05,53.2158,218.1883,115.7904,244.3179,0.00027873,4.15e-05,0.0,0 STARLINK-4015,1 52616U 22052U   23133.52697674  .00004150  00000-0  27873-3 0  9999,2 52616  53.2158 218.1883 0000881 115.7904 244.3179 15.08829687 55690,6917.912,95.438,540.386,539.167,0.0
52616.0,STARLINK-4015,PAYLOAD,2023-05-13 15:49:36,15.08844158,6.52e-05,53.216,217.5941,99.403,260.7036,1.8004e-05,-1e-08,0.0,0 STARLINK-4015,1 52616U 22052U   23133.65944921 -.00000001  00000-0  18004-4 0  9992,2 52616  53.2160 217.5941 0000652  99.4030 260.7036 15.08844158 55712,6917.868,95.437,540.184,539.282,0.0
52616.0,STARLINK-4015,PAYLOAD,2023-05-14 10:54:14,15.08837406,7.14e-05,53.2159,214.0268,77.9358,282.1714,4.5261e-05,4.33e-06,0.0,0 STARLINK-4015,1 52616U 22052U   23134.45433550  .00000433  00000-0  45261-4 0  9995,2 52616  53.2159 214.0268 0000714  77.9358 282.1714 15.08837406 55839,6917.888,95.438,540.247,539.259,0.0
52616.0,STARLINK-4015,PAYLOAD,2023-05-14 14:05:00,15.08841335,7.59e-05,53.2165,213.4321,74.6631,285.4445,8.7202e-05,1.1e-05,0.0,0 STARLINK-4015,1 52616U 22052U   23134.58681227  .00001100  00000-0  87202-4 0  9998,2 52616  53.2165 213.4321 0000759  74.6631 285.4445 15.08841335 55480,6917.876,95.437,540.266,539.216,0.0
52616.0,STARLINK-4015,PAYLOAD,2023-05-15 12:20:24,15.08839199,7.6e-05,53.2164,209.2685,90.0205,270.0874,6.3288e-05,7.2e-06,0.0,0 STARLINK-4015,1 52616U 22052U   23135.51417648  .00000720  00000-0  63288-4 0  9991,2 52616  53.2164 209.2685 0000760  90.0205 270.0874 15.08839199 55623,6917.883,95.438,540.274,539.222,0.0
52616.0,STARLINK-4015,PAYLOAD,2023-05-15 13:55:47,15.08842191,7.97e-05,53.2166,208.9716,97.8912,262.2171,0.00010269,1.347e-05,0.0,0 STARLINK-4015,1 52616U 22052U   23135.58041490  .00001347  00000-0  10269-3 0  9992,2 52616  53.2166 208.9716 0000797  97.8912 262.2171 15.08842191 56008,6917.874,95.437,540.29,539.187,0.0
52616.0,STARLINK-4015,PAYLOAD,2023-05-16 13:46:35,15.08841297,6.84e-05,53.2166,204.5112,112.8265,247.2799,4.8311e-05,4.81e-06,0.0,0 STARLINK-4015,1 52616U 22052U   23136.57401780  .00000481  00000-0  48311-4 0  9992,2 52616  53.2166 204.5112 0000684 112.8265 247.2799 15.08841297 55783,6917.876,95.437,540.215,539.268,0.0
52616.0,STARLINK-4015,PAYLOAD,2023-05-16 21:43:30,15.08840815,7.7e-05,53.2174,203.0212,81.0136,279.0943,6.5912e-05,7.62e-06,0.0,0 STARLINK-4015,1 52616U 22052U   23136.90521800  .00000762  00000-0  65912-4 0  9993,2 52616  53.2174 203.0212 0000770  81.0136 279.0943 15.08840815 55832,6917.878,95.438,540.276,539.21,0.0
52616.0,STARLINK-4015,PAYLOAD,2023-05-17 21:34:17,15.08843476,8.26e-05,53.2168,198.5638,77.5626,282.5458,5.1054e-05,5.25e-06,0.0,0 STARLINK-4015,1 52616U 22052U   23137.89881509  .00000525  00000-0  51054-4 0  9996,2 52616  53.2168 198.5638 0000826  77.5626 282.5458 15.08843476 55983,6917.87,95.437,540.306,539.163,0.0
52616.0,STARLINK-4015,PAYLOAD,2023-05-18 13:28:09,15.08841215,8.02e-05,53.2165,195.5901,76.9977,283.1105,5.4684e-05,5.83e-06,0.0,0 STARLINK-4015,1 52616U 22052U   23138.56121569  .00000583  00000-0  54684-4 0  9990,2 52616  53.2165 195.5901 0000802  76.9977 283.1105 15.08841215 56083,6917.877,95.437,540.296,539.187,0.0
52616.0,STARLINK-4015,PAYLOAD,2023-05-18 21:25:04,15.08840749,8.18e-05,53.2165,194.1036,74.7355,285.3727,4.341e-05,4.03e-06,0.0,0 STARLINK-4015,1 52616U 22052U   23138.89241595  .00000403  00000-0  43410-4 0  9994,2 52616  53.2165 194.1036 0000818  74.7355 285.3727 15.08840749 56131,6917.878,95.438,540.309,539.177,0.0
52616.0,STARLINK-4015,PAYLOAD,2023-05-19 08:32:46,15.0884209,8.21e-05,53.2163,192.0218,75.5931,284.5153,3.1069e-05,2.07e-06,0.0,0 STARLINK-4015,1 52616U 22052U   23139.35609486  .00000207  00000-0  31069-4 0  9992,2 52616  53.2163 192.0218 0000821  75.5931 284.5153 15.08842090 56574,6917.874,95.437,540.307,539.171,0.0
52616.0,STARLINK-4015,PAYLOAD,2023-05-19 10:08:09,15.08843733,7.66e-05,53.2163,191.7241,82.8159,277.292,2.8507e-05,1.66e-06,0.0,0 STARLINK-4015,1 52616U 22052U   23139.42233352  .00000166  00000-0  28507-4 0  9992,2 52616  53.2163 191.7241 0000766  82.8159 277.2920 15.08843733 56214,6917.869,95.437,540.264,539.204,0.0
52616.0,STARLINK-4015,PAYLOAD,2023-05-20 09:58:56,15.08843344,7.71e-05,53.2159,187.2638,76.5773,283.5305,6.7831e-05,7.92e-06,0.0,0 STARLINK-4015,1 52616U 22052U   23140.41593215  .00000792  00000-0  67831-4 0  9998,2 52616  53.2159 187.2638 0000771  76.5773 283.5305 15.08843344 56739,6917.87,95.437,540.269,539.202,0.0
52616.0,STARLINK-4015,PAYLOAD,2023-05-20 19:31:15,15.08845725,7.86e-05,53.2159,185.4796,75.4829,284.625,7.6004e-05,9.22e-06,0.0,0 STARLINK-4015,1 52616U 22052U   23140.81336954  .00000922  00000-0  76004-4 0  9994,2 52616  53.2159 185.4796 0000786  75.4829 284.6250 15.08845725 56422,6917.863,95.437,540.272,539.184,0.0
52616.0,STARLINK-4015,PAYLOAD,2023-05-21 13:00:29,15.08847829,8.33e-05,53.2162,182.2085,97.7285,262.3802,9.749e-05,1.265e-05,0.0,0 STARLINK-4015,1 52616U 22052U   23141.54200549  .00001265  00000-0  97490-4 0  9998,2 52616  53.2162 182.2085 0000833  97.7285 262.3802 15.08847829 56533,6917.856,95.437,540.298,539.145,0.0
52616.0,STARLINK-4015,PAYLOAD,2023-05-21 19:22:02,15.0883721,7.57e-05,53.215,181.0162,71.7415,288.366,8.8724e-06,-1.46e-06,0.0,0 STARLINK-4015,1 52616U 22052U   23141.80697450 -.00000146  00000-0  88724-5 0  9997,2 52616  53.2150 181.0162 0000757  71.7415 288.3660 15.08837210 56572,6917.889,95.438,540.278,539.23,0.0
52616.0,STARLINK-4015,PAYLOAD,2023-05-22 09:40:31,15.08828562,8.65e-05,53.2151,178.3409,83.7814,276.3277,-3.6042e-05,-8.61e-06,0.0,0 STARLINK-4015,1 52616U 22052U   23142.40314418 -.00000861  00000-0 -36042-4 0  9994,2 52616  53.2151 178.3409 0000865  83.7814 276.3277 15.08828562 57035,6917.915,95.438,540.379,539.182,0.0
52616.0,STARLINK-4015,PAYLOAD,2023-05-22 12:51:17,15.08831521,8.05e-05,53.2165,177.7485,95.597,264.5114,-4.2391e-05,-9.62e-06,0.0,0 STARLINK-4015,1 52616U 22052U   23142.53562341 -.00000962  00000-0 -42391-4 0  9994,2 52616  53.2165 177.7485 0000805  95.5970 264.5114 15.08831521 56683,6917.906,95.438,540.328,539.214,0.0
52616.0,STARLINK-4015,PAYLOAD,2023-05-22 19:12:50,15.0883205,7.93e-05,53.2165,176.5592,94.7573,265.351,-3.658e-05,-8.7e-06,0.0,0 STARLINK-4015,1 52616U 22052U   23142.80058418 -.00000870  00000-0 -36580-4 0  9990,2 52616  53.2165 176.5592 0000793  94.7573 265.3510 15.08832050 56727,6917.905,95.438,540.318,539.221,0.0
52616.0,STARLINK-4015,PAYLOAD,2023-05-23 11:06:41,15.08837164,7.27e-05,53.2162,173.5848,87.3556,272.7519,-1.7626e-05,-5.68e-06,0.0,0 STARLINK-4015,1 52616U 22052U   23143.46298340 -.00000568  00000-0 -17626-4 0  9997,2 52616  53.2162 173.5848 0000727  87.3556 272.7519 15.08837164 57195,6917.889,95.438,540.257,539.251,0.0
52616.0,STARLINK-4015,PAYLOAD,2023-05-23 19:03:37,15.08839634,8.07e-05,53.2164,172.0987,107.0324,253.0757,4.4887e-06,-2.16e-06,0.0,0 STARLINK-4015,1 52616U 22052U   23143.79418167 -.00000216  00000-0  44887-5 0  9993,2 52616  53.2164 172.0987 0000807 107.0324 253.0757 15.08839634 56871,6917.882,95.438,540.305,539.188,0.0
52616.0,STARLINK-4015,PAYLOAD,2023-05-24 07:46:42,15.08837144,7.25e-05,53.216,169.7193,89.8624,270.2451,0.00016028,2.264e-05,0.0,0 STARLINK-4015,1 52616U 22052U   23144.32410305  .00002264  00000-0  16028-3 0  9997,2 52616  53.2160 169.7193 0000725  89.8624 270.2451 15.08837144 56953,6917.889,95.438,540.256,539.253,0.0
52616.0,STARLINK-4015,PAYLOAD,2023-05-26 04:17:30,15.08844061,7.89e-05,53.2159,161.3938,83.3518,276.7564,6.2789e-05,7.12e-06,0.0,0 STARLINK-4015,1 52616U 22052U   23146.17882317  .00000712  00000-0  62789-4 0  9990,2 52616  53.2159 161.3938 0000789  83.3518 276.7564 15.08844061 57602,6917.868,95.437,540.279,539.187,0.0
52616.0,STARLINK-4015,PAYLOAD,2023-05-26 07:28:16,15.08845109,7.92e-05,53.216,160.7991,91.3752,268.7331,7.5028e-05,9.07e-06,0.0,0 STARLINK-4015,1 52616U 22052U   23146.31130151  .00000907  00000-0  75028-4 0  9994,2 52616  53.2160 160.7991 0000792  91.3752 268.7331 15.08845109 57257,6917.865,95.437,540.278,539.182,0.0
52616.0,STARLINK-4015,PAYLOAD,2023-05-27 10:29:49,15.08840339,7.87e-05,53.2157,155.7438,78.3974,281.7106,3.445e-05,2.61e-06,0.0,0 STARLINK-4015,1 52616U 22052U   23147.43738425  .00000261  00000-0  34450-4 0  9993,2 52616  53.2157 155.7438 0000787  78.3974 281.7106 15.08840339 57792,6917.879,95.438,540.289,539.2,0.0
